STARLINK-2183_new
1 17765C 21017AV  21326.12482348 -.00008472  00000-0 -56775-3 0  3266
2 17765  53.0562  48.1718 0001554  69.0962 345.5638 15.06398553    18
STARLINK-2183_old
1 27765C 21017AV  21325.12915773  .00007436  00000-0  49821-3 0  3258
2 27765  53.0560  52.6413 0001497  69.4260 342.7093 15.06390568    11
